GLOBALSTAR M084         
1 38040U 11080A   24316.81470369 -.00000060  00000+0  24325-3 0  9994
2 38040  52.0028 350.2356 0000087  38.9592 132.2697 12.62270384595496
GLOBALSTAR M080         
1 38041U 11080B   24316.54948170 -.00000059  00000+0  24716-3 0  9997
2 38041  52.0080 352.5744 0000204 219.6104 305.2814 12.62268318595306
GLOBALSTAR M082         
1 38042U 11080C   24317.24183733 -.00000077  00000+0  15015-3 0  9994
2 38042  52.0083 305.8896 0000899  69.1380 303.7355 12.62269476596279
GLOBALSTAR M092         
1 38043U 11080D   24317.46461794 -.00000092  00000+0  67861-4 0  9999
2 38043  52.0107  35.5743 0000458 102.9777 322.8759 12.62269319594793
GLOBALSTAR M090         
1 38044U 11080E   24317.37696271 -.00000077  00000+0  15176-3 0  9994
2 38044  51.9889 299.5649 0000648  72.7258  74.9220 12.62270597596278
GLOBALSTAR M086         
1 38045U 11080F   24317.48345559 -.00000073  00000+0  17255-3 0  9993
2 38045  51.9904 299.7743 0000646 174.5141 337.8368 12.62270036596298
GLOBALSTAR M097         
1 39072U 13005A   24316.76408665 -.00000096  00000+0  46120-4 0  9990
2 39072  52.0041 216.2929 0000910  86.4808 273.6163 12.62267034543430
GLOBALSTAR M093         
1 39073U 13005B   24317.05406933 -.00000080  00000+0  13099-3 0  9991
2 39073  51.9802 209.0585 0001082  87.3947 272.7043 12.62267457543466
